CTC2_L_00283016-03
1 88291U 24487YS  26037.47793981  .00000000  00000+0  00000-0 0  9998
2 88291  90.0000 180.0000 0000000   0.0000   0.0000 13.89609337    18
CTC2_L_00283016-04
1 88292U 24746UO  26037.47793981  .00000000  00000+0  00000-0 0  9997
2 88292  90.0000 180.0000 0000000   0.0000  90.0000 13.89609337    18
CTC2_L_00283017-01
1 88293U 26779DQ  26037.47793981  .00000000  00000+0  00000-0 0  9996
2 88293  90.0000 192.0000 0000000   0.0000 192.0000 13.89609337    15
CTC2_L_00283017-02
1 88294U 23489VT  26037.47793981  .00000000  00000+0  00000-0 0  9992
2 88294  90.0000 192.0000 0000000   0.0000 282.0000 13.89609337    16
CTC2_L_00283017-03
1 88295U 22972IT  26037.47793981  .00000000  00000+0  00000-0 0  9999
2 88295  90.0000 192.0000 0000000   0.0000  12.0000 13.89609337    18
CTC2_L_00283017-04
1 88296U 23560JL  26037.47793981  .00000000  00000+0  00000-0 0  9994
2 88296  90.0000 192.0000 0000000   0.0000 102.0000 13.89609337    19
CTC2_L_00283018-01
1 88297U 22253TW  26037.47793981  .00000000  00000+0  00000-0 0  9993
2 88297  90.0000 204.0000 0000000   0.0000 204.0000 13.89609337    17
CTC2_L_00283018-02
1 88298U 22133SX  26037.47793981  .00000000  00000+0  00000-0 0  9991
2 88298  90.0000 204.0000 0000000   0.0000 294.0000 13.89609337    17
CTC2_L_00283018-03
1 88299U 25429QS  26037.47793981  .00000000  00000+0  00000-0 0  9993
2 88299  90.0000 204.0000 0000000   0.0000  24.0000 13.89609337    19
CTC2_L_00283018-04
1 88300U 26359KH  26037.47793981  .00000000  00000+0  00000-0 0  9999
2 88300  90.0000 204.0000 0000000   0.0000 114.0000 13.89609337    12
CTC2_L_00283019-01
1 88301U 26127GR  26037.47793981  .00000000  00000+0  00000-0 0  9993
2 88301  90.0000 216.0000 0000000   0.0000 216.0000 13.89609337    19
CTC2_L_00283019-02
1 88302U 26085QY  26037.47793981  .00000000  00000+0  00000-0 0  9997
2 88302  90.0000 216.0000 0000000   0.0000 306.0000 13.89609337    10
CTC2_L_00283019-03
1 88303U 26451EZ  26037.47793981  .00000000  00000+0  00000-0 0  9995
2 88303  90.0000 216.0000 0000000   0.0000  36.0000 13.89609337    11
CTC2_L_00283019-04
1 88304U 25497ZB  26037.47793981  .00000000  00000+0  00000-0 0  9995
2 88304  90.0000 216.0000 0000000   0.0000 126.0000 13.89609337    12
CTC2_L_00283020-01
1 88305U 22862PD  26037.47793981  .00000000  00000+0  00000-0 0  9999
2 88305  90.0000 228.0000 0000000   0.0000 228.0000 13.89609337    19
CTC2_L_00283020-02
1 88306U 26033CH  26037.47793981  .00000000  00000+0  00000-0 0  9994
2 88306  90.0000 228.0000 0000000   0.0000 318.0000 13.89609337    10
CTC2_L_00283020-03
1 88307U 24843AU  26037.47793981  .00000000  00000+0  00000-0 0  9992
2 88307  90.0000 228.0000 0000000   0.0000  48.0000 13.89609337    11
CTC2_L_00283020-04
1 88308U 22255GI  26037.47793981  .00000000  00000+0  00000-0 0  9998
2 88308  90.0000 228.0000 0000000   0.0000 138.0000 13.89609337    12
CTC2_L_00283021-01
1 88309U 26731OA  26037.47793981  .00000000  00000+0  00000-0 0  9992
2 88309  90.0000 240.0000 0000000   0.0000 240.0000 13.89609337    11
CTC2_L_00283021-02
1 88310U 22071PS  26037.47793981  .00000000  00000+0  00000-0 0  9997
2 88310  90.0000 240.0000 0000000   0.0000 330.0000 13.89609337    13
CTC2_L_00283021-03
1 88311U 22568JD  26037.47793981  .00000000  00000+0  00000-0 0  9999
2 88311  90.0000 240.0000 0000000   0.0000  60.0000 13.89609337    14
CTC2_L_00283021-04
1 88312U 24885JZ  26037.47793981  .00000000  00000+0  00000-0 0  9994
2 88312  90.0000 240.0000 0000000   0.0000 150.0000 13.89609337    15
CTC2_L_00283022-01
1 88313U 26530RT  26037.47793981  .00000000  00000+0  00000-0 0  9994
2 88313  90.0000 252.0000 0000000   0.0000 252.0000 13.89609337    12
CTC2_L_00283022-02
1 88314U 25154FS  26037.47793981  .00000000  00000+0  00000-0 0  9996
2 88314  90.0000 252.0000 0000000   0.0000 342.0000 13.89609337    13
CTC2_L_00283022-03
1 88315U 24751IB  26037.47793981  .00000000  00000+0  00000-0 0  9999
2 88315  90.0000 252.0000 0000000   0.0000  72.0000 13.89609337    14
CTC2_L_00283022-04
1 88316U 22042AB  26037.47793981  .00000000  00000+0  00000-0 0  9991
2 88316  90.0000 252.0000 0000000   0.0000 162.0000 13.89609337    15
CTC2_L_00283023-01
1 88317U 22356GL  26037.47793981  .00000000  00000+0  00000-0 0  9990
2 88317  90.0000 264.0000 0000000   0.0000 264.0000 13.89609337    12
CTC2_L_00283023-02
1 88318U 26760FQ  26037.47793981  .00000000  00000+0  00000-0 0  9994
2 88318  90.0000 264.0000 0000000   0.0000 354.0000 13.89609337    13
CTC2_L_00283023-03
1 88319U 24097GL  26037.47793981  .00000000  00000+0  00000-0 0  9996
2 88319  90.0000 264.0000 0000000   0.0000  84.0000 13.89609337    14
CTC2_L_00283023-04
1 88320U 22672BE  26037.47793981  .00000000  00000+0  00000-0 0  9995
2 88320  90.0000 264.0000 0000000   0.0000 174.0000 13.89609337    16
CTC2_L_00283024-01
1 88321U 25050BA  26037.47793981  .00000000  00000+0  00000-0 0  9999
2 88321  90.0000 276.0000 0000000   0.0000 276.0000 13.89609337    13
CTC2_L_00283024-02
1 88322U 22056KE  26037.47793981  .00000000  00000+0  00000-0 0  9993
2 88322  90.0000 276.0000 0000000   0.0000   6.0000 13.89609337    15
CTC2_L_00283024-03
1 88323U 24019CR  26037.47793981  .00000000  00000+0  00000-0 0  9995
2 88323  90.0000 276.0000 0000000   0.0000  96.0000 13.89609337    15
CTC2_L_00283024-04
1 88324U 26236CL  26037.47793981  .00000000  00000+0  00000-0 0  9999
2 88324  90.0000 276.0000 0000000   0.0000 186.0000 13.89609337    16
CTC2_L_00283025-01
1 88325U 24376DG  26037.47793981  .00000000  00000+0  00000-0 0  9993
2 88325  90.0000 288.0000 0000000   0.0000 288.0000 13.89609337    13
CTC2_L_00283025-02
1 88326U 22073HS  26037.47793981  .00000000  00000+0  00000-0 0  9996
2 88326  90.0000 288.0000 0000000   0.0000  18.0000 13.89609337    15
CTC2_L_00283025-03
1 88327U 26851WW  26037.47793981  .00000000  00000+0  00000-0 0  9995
2 88327  90.0000 288.0000 0000000   0.0000 108.0000 13.89609337    16
CTC2_L_00283025-04
1 88328U 22714AN  26037.47793981  .00000000  00000+0  00000-0 0  9990
2 88328  90.0000 288.0000 0000000   0.0000 198.0000 13.89609337    16
CTC2_L_00283026-01
1 88329U 22128EG  26037.47793981  .00000000  00000+0  00000-0 0  9990
2 88329  90.0000 300.0000 0000000   0.0000 300.0000 13.89609337    17
CTC2_L_00283026-02
1 88330U 22997WS  26037.47793981  .00000000  00000+0  00000-0 0  9996
2 88330  90.0000 300.0000 0000000   0.0000  30.0000 13.89609337    19
CTC2_L_00283026-03
1 88331U 26717QK  26037.47793981  .00000000  00000+0  00000-0 0  9991
2 88331  90.0000 300.0000 0000000   0.0000 120.0000 13.89609337    10
CTC2_L_00283026-04
1 88332U 24192LT  26037.47793981  .00000000  00000+0  00000-0 0  9997
2 88332  90.0000 300.0000 0000000   0.0000 210.0000 13.89609337    11
CTC2_L_00283027-01
1 88333U 25203KL  26037.47793981  .00000000  00000+0  00000-0 0  9992
2 88333  90.0000 312.0000 0000000   0.0000 312.0000 13.89609337    18
CTC2_L_00283027-02
1 88334U 26737GB  26037.47793981  .00000000  00000+0  00000-0 0  9996
2 88334  90.0000 312.0000 0000000   0.0000  42.0000 13.89609337    19
CTC2_L_00283027-03
1 88335U 24084WL  26037.47793981  .00000000  00000+0  00000-0 0  9990
2 88335  90.0000 312.0000 0000000   0.0000 132.0000 13.89609337    10
CTC2_L_00283027-04
1 88336U 25290OX  26037.47793981  .00000000  00000+0  00000-0 0  9991
2 88336  90.0000 312.0000 0000000   0.0000 222.0000 13.89609337    11
CTC2_L_00283028-01
1 88337U 25875BB  26037.47793981  .00000000  00000+0  00000-0 0  9991
2 88337  90.0000 324.0000 0000000   0.0000 324.0000 13.89609337    18
CTC2_L_00283028-02
1 88338U 25091JN  26037.47793981  .00000000  00000+0  00000-0 0  9992
2 88338  90.0000 324.0000 0000000   0.0000  54.0000 13.89609337    19
CTC2_L_00283028-03
1 88339U 22245LS  26037.47793981  .00000000  00000+0  00000-0 0  9991
2 88339  90.0000 324.0000 0000000   0.0000 144.0000 13.89609337    10
CTC2_L_00283028-04
1 88340U 26909MB  26037.47793981  .00000000  00000+0  00000-0 0  9994
2 88340  90.0000 324.0000 0000000   0.0000 234.0000 13.89609337    12
CTC2_L_00283029-01
1 88341U 25580KD  26037.47793981  .00000000  00000+0  00000-0 0  9999
2 88341  90.0000 336.0000 0000000   0.0000 336.0000 13.89609337    19
CTC2_L_00283029-02
1 88342U 23322VL  26037.47793981  .00000000  00000+0  00000-0 0  9992
2 88342  90.0000 336.0000 0000000   0.0000  66.0000 13.89609337    10
CTC2_L_00283029-03
1 88343U 26136ZQ  26037.47793981  .00000000  00000+0  00000-0 0  9999
2 88343  90.0000 336.0000 0000000   0.0000 156.0000 13.89609337    11
CTC2_L_00283029-04
1 88344U 26655QA  26037.47793981  .00000000  00000+0  00000-0 0  9996
2 88344  90.0000 336.0000 0000000   0.0000 246.0000 13.89609337    12
CTC2_L_00283030-01
1 88345U 23761F   26037.47793981  .00000000  00000+0  00000-0 0  9992
2 88345  90.0000 348.0000 0000000   0.0000 348.0000 13.89609337    19
CTC2_L_00283030-02
1 88346U 26735AD  26037.47793981  .00000000  00000+0  00000-0 0  9997
2 88346  90.0000 348.0000 0000000   0.0000  78.0000 13.89609337    10
CTC2_L_00283030-03
1 88347U 25757WT  26037.47793981  .00000000  00000+0  00000-0 0  9991
2 88347  90.0000 348.0000 0000000   0.0000 168.0000 13.89609337    11
CTC2_L_00283030-04
1 88348U 24196RN  26037.47793981  .00000000  00000+0  00000-0 0  9998
2 88348  90.0000 348.0000 0000000   0.0000 258.0000 13.89609337    12
